COSMOS 2581             
1 62902U 25026A   26068.82116744  .00002320  00000+0  21137-3 0  9992
2 62902  81.9986 175.8565 0010574  32.7244 327.4629 14.94736104 59374
COSMOS 2583             
1 62904U 25026C   26068.82129982  .00003688  00000+0  33674-3 0  9999
2 62904  81.9959 175.8530 0006043  76.2523 283.9369 14.94821455 59356
