[{"OBJECT_NAME":"COSMOS 2581","OBJECT_ID":"2025-026A","EPOCH":"2026-03-09T19:42:28.866816","MEAN_MOTION":14.94736104,"ECCENTRICITY":0.0010574,"INCLINATION":81.9986,"RA_OF_ASC_NODE":175.8565,"ARG_OF_PERICENTER":32.7244,"MEAN_ANOMALY":327.4629,"EPHEMERIS_TYPE":0,"CLASSIFICATION_TYPE":"U","NORAD_CAT_ID":62902,"ELEMENT_SET_NO":999,"REV_AT_EPOCH":5937,"BSTAR":0.00021137,"MEAN_MOTION_DOT":2.32e-5,"MEAN_MOTION_DDOT":0},{"OBJECT_NAME":"COSMOS 2583","OBJECT_ID":"2025-026C","EPOCH":"2026-03-09T19:42:40.304448","MEAN_MOTION":14.94821455,"ECCENTRICITY":0.0006043,"INCLINATION":81.9959,"RA_OF_ASC_NODE":175.853,"ARG_OF_PERICENTER":76.2523,"MEAN_ANOMALY":283.9369,"EPHEMERIS_TYPE":0,"CLASSIFICATION_TYPE":"U","NORAD_CAT_ID":62904,"ELEMENT_SET_NO":999,"REV_AT_EPOCH":5935,"BSTAR":0.00033674,"MEAN_MOTION_DOT":3.688e-5,"MEAN_MOTION_DDOT":0}]
